[{"OBJECT_NAME":"OBJECT D","OBJECT_ID":"2023-072D","EPOCH":"2026-03-09T22:22:02.837856","MEAN_MOTION":15.56411819,"ECCENTRICITY":0.00020241,"INCLINATION":97.5083,"RA_OF_ASC_NODE":279.2529,"ARG_OF_PERICENTER":343.457,"MEAN_ANOMALY":16.6618,"EPHEMERIS_TYPE":0,"CLASSIFICATION_TYPE":"U","NORAD_CAT_ID":56746,"ELEMENT_SET_NO":999,"REV_AT_EPOCH":15536,"BSTAR":0.00095552133,"MEAN_MOTION_DOT":0.00067835,"MEAN_MOTION_DDOT":0},{"OBJECT_NAME":"STARLINK-36627","OBJECT_ID":"2026-020U","EPOCH":"2026-03-09T22:00:01.999584","MEAN_MOTION":15.68605288,"ECCENTRICITY":0.00014613,"INCLINATION":42.9998,"RA_OF_ASC_NODE":140.6895,"ARG_OF_PERICENTER":272.8635,"MEAN_ANOMALY":68.5573,"EPHEMERIS_TYPE":0,"CLASSIFICATION_TYPE":"U","NORAD_CAT_ID":67635,"ELEMENT_SET_NO":999,"REV_AT_EPOCH":604,"BSTAR":-0.018966671,"MEAN_MOTION_DOT":-0.01959305,"MEAN_MOTION_DDOT":0}]
